STARLINK-36820          
1 67966U 26038F   26065.58334491 -.01595843  76266-3 -35314-2 0  9994
2 67966  97.2745  75.6278 0001234  95.4422 153.4233 15.98090436  2694
STARLINK-36819          
1 67967U 26038G   26065.58334491 -.01599257  76679-3 -35139-2 0  9991
2 67967  97.2743  75.6290 0001264  91.2978 160.5395 15.98219190  2698
STARLINK-36812          
1 67968U 26038H   26065.58334491 -.01597393  76603-3 -34890-2 0  9991
2 67968  97.2739  75.6297 0001213  96.2224 158.1627 15.98326788  2697
STARLINK-36709          
1 67969U 26038J   26065.58334491 -.01603203  77351-3 -34502-2 0  9991
2 67969  97.2740  75.6325 0001242 107.2569 153.2013 15.98594766  2697
STARLINK-36319          
1 67970U 26038K   26065.58334491 -.01601304  77066-3 -34718-2 0  9995
2 67970  97.2739  75.6309 0001279 102.8975 154.5002 15.98460502  2660
STARLINK-36710          
1 67971U 26038L   26065.58334491 -.01595423  76793-3 -34021-2 0  9993
2 67971  97.2736  75.6341 0001310 107.4054 156.7612 15.98758619  2692
STARLINK-36894          
1 67972U 26038M   26065.58334491 -.01604472  77730-3 -33943-2 0  9993
2 67972  97.2733  75.6353 0001316 102.9200 164.2957 15.98902984  2694
STARLINK-36900          
1 67973U 26038N   26065.58334491 -.01580278  75776-3 -32957-2 0  9993
2 67973  97.2731  75.6376 0001190 106.4523 166.8870 15.99155867  2698
STARLINK-36901          
1 67974U 26038P   26065.58334491 -.01580975  75719-3 -33233-2 0  9993
2 67974  97.2732  75.6362 0001257  94.2061 175.9207 15.99014739  2697
STARLINK-36883          
1 67975U 26038Q   26065.58334491 -.01570005  75324-3 -31748-2 0  9998
2 67975  97.2726  75.6430 0001216 102.5909 183.1404 15.99704690  2698
STARLINK-36880          
1 67976U 26038R   26065.58334491 -.01579297  75806-3 -32681-2 0  9993
2 67976  97.2729  75.6389 0001234 102.3076 174.1510 15.99294834  2690
STARLINK-36904          
1 67977U 26038S   26065.58334491 -.01563046  74583-3 -31864-2 0  9992
2 67977  97.2725  75.6413 0001172  98.4645 184.1644 15.99560084  2695
STARLINK-36364          
1 67978U 26038T   26065.58334491 -.01571534  75741-3 -31195-2 0  9998
2 67978  97.2719  75.6458 0001149 102.7156 190.2989 16.00033830  2695
STARLINK-36359          
1 67979U 26038U   26065.58334491 -.01579494  75920-3 -32479-2 0  9997
2 67979  97.2726  75.6395 0001217 103.5527 175.5215 15.99407906  2695
STARLINK-36882          
1 67980U 26038V   26065.58334491 -.01558320  74426-3 -31211-2 0  9997
2 67980  97.2720  75.6442 0001192 102.3284 187.2246 15.99873620  2697
STARLINK-36874          
1 67981U 26038W   26065.58334491 -.01553780  74246-3 -30654-2 0  9993
2 67981  97.2720  75.6469 0001213  92.2601 203.2972 16.00139928  2695
