[{"OBJECT_NAME":"STARLINK-36820","OBJECT_ID":"2026-038F","EPOCH":"2026-03-06T14:00:01.000224","MEAN_MOTION":15.98090436,"ECCENTRICITY":0.00012344,"INCLINATION":97.2745,"RA_OF_ASC_NODE":75.6278,"ARG_OF_PERICENTER":95.4422,"MEAN_ANOMALY":153.4233,"EPHEMERIS_TYPE":0,"CLASSIFICATION_TYPE":"U","NORAD_CAT_ID":67966,"ELEMENT_SET_NO":999,"REV_AT_EPOCH":269,"BSTAR":-0.0035313712,"MEAN_MOTION_DOT":-0.01595843,"MEAN_MOTION_DDOT":0.00076266297},{"OBJECT_NAME":"STARLINK-36819","OBJECT_ID":"2026-038G","EPOCH":"2026-03-06T14:00:01.000224","MEAN_MOTION":15.9821919,"ECCENTRICITY":0.00012641,"INCLINATION":97.2743,"RA_OF_ASC_NODE":75.629,"ARG_OF_PERICENTER":91.2978,"MEAN_ANOMALY":160.5395,"EPHEMERIS_TYPE":0,"CLASSIFICATION_TYPE":"U","NORAD_CAT_ID":67967,"ELEMENT_SET_NO":999,"REV_AT_EPOCH":269,"BSTAR":-0.0035139403,"MEAN_MOTION_DOT":-0.01599257,"MEAN_MOTION_DDOT":0.00076678557},{"OBJECT_NAME":"STARLINK-36812","OBJECT_ID":"2026-038H","EPOCH":"2026-03-06T14:00:01.000224","MEAN_MOTION":15.98326788,"ECCENTRICITY":0.00012133,"INCLINATION":97.2739,"RA_OF_ASC_NODE":75.6297,"ARG_OF_PERICENTER":96.2224,"MEAN_ANOMALY":158.1627,"EPHEMERIS_TYPE":0,"CLASSIFICATION_TYPE":"U","NORAD_CAT_ID":67968,"ELEMENT_SET_NO":999,"REV_AT_EPOCH":269,"BSTAR":-0.0034890102,"MEAN_MOTION_DOT":-0.01597393,"MEAN_MOTION_DDOT":0.0007660298},{"OBJECT_NAME":"STARLINK-36709","OBJECT_ID":"2026-038J","EPOCH":"2026-03-06T14:00:01.000224","MEAN_MOTION":15.98594766,"ECCENTRICITY":0.00012423,"INCLINATION":97.274,"RA_OF_ASC_NODE":75.6325,"ARG_OF_PERICENTER":107.2569,"MEAN_ANOMALY":153.2013,"EPHEMERIS_TYPE":0,"CLASSIFICATION_TYPE":"U","NORAD_CAT_ID":67969,"ELEMENT_SET_NO":999,"REV_AT_EPOCH":269,"BSTAR":-0.0034502321,"MEAN_MOTION_DOT":-0.01603203,"MEAN_MOTION_DDOT":0.00077350508},{"OBJECT_NAME":"STARLINK-36319","OBJECT_ID":"2026-038K","EPOCH":"2026-03-06T14:00:01.000224","MEAN_MOTION":15.98460502,"ECCENTRICITY":0.00012799,"INCLINATION":97.2739,"RA_OF_ASC_NODE":75.6309,"ARG_OF_PERICENTER":102.8975,"MEAN_ANOMALY":154.5002,"EPHEMERIS_TYPE":0,"CLASSIFICATION_TYPE":"U","NORAD_CAT_ID":67970,"ELEMENT_SET_NO":999,"REV_AT_EPOCH":266,"BSTAR":-0.0034718291,"MEAN_MOTION_DOT":-0.01601304,"MEAN_MOTION_DDOT":0.00077065679},{"OBJECT_NAME":"STARLINK-36710","OBJECT_ID":"2026-038L","EPOCH":"2026-03-06T14:00:01.000224","MEAN_MOTION":15.98758619,"ECCENTRICITY":0.00013101,"INCLINATION":97.2736,"RA_OF_ASC_NODE":75.6341,"ARG_OF_PERICENTER":107.4054,"MEAN_ANOMALY":156.7612,"EPHEMERIS_TYPE":0,"CLASSIFICATION_TYPE":"U","NORAD_CAT_ID":67971,"ELEMENT_SET_NO":999,"REV_AT_EPOCH":269,"BSTAR":-0.0034021494,"MEAN_MOTION_DOT":-0.01595423,"MEAN_MOTION_DDOT":0.00076792721},{"OBJECT_NAME":"STARLINK-36894","OBJECT_ID":"2026-038M","EPOCH":"2026-03-06T14:00:01.000224","MEAN_MOTION":15.98902984,"ECCENTRICITY":0.00013164,"INCLINATION":97.2733,"RA_OF_ASC_NODE":75.6353,"ARG_OF_PERICENTER":102.92,"MEAN_ANOMALY":164.2957,"EPHEMERIS_TYPE":0,"CLASSIFICATION_TYPE":"U","NORAD_CAT_ID":67972,"ELEMENT_SET_NO":999,"REV_AT_EPOCH":269,"BSTAR":-0.0033942893,"MEAN_MOTION_DOT":-0.01604472,"MEAN_MOTION_DDOT":0.00077729939},{"OBJECT_NAME":"STARLINK-36900","OBJECT_ID":"2026-038N","EPOCH":"2026-03-06T14:00:01.000224","MEAN_MOTION":15.99155867,"ECCENTRICITY":0.00011907,"INCLINATION":97.2731,"RA_OF_ASC_NODE":75.6376,"ARG_OF_PERICENTER":106.4523,"MEAN_ANOMALY":166.887,"EPHEMERIS_TYPE":0,"CLASSIFICATION_TYPE":"U","NORAD_CAT_ID":67973,"ELEMENT_SET_NO":999,"REV_AT_EPOCH":269,"BSTAR":-0.0032957301,"MEAN_MOTION_DOT":-0.01580278,"MEAN_MOTION_DDOT":0.0007577609},{"OBJECT_NAME":"STARLINK-36901","OBJECT_ID":"2026-038P","EPOCH":"2026-03-06T14:00:01.000224","MEAN_MOTION":15.99014739,"ECCENTRICITY":0.00012578,"INCLINATION":97.2732,"RA_OF_ASC_NODE":75.6362,"ARG_OF_PERICENTER":94.2061,"MEAN_ANOMALY":175.9207,"EPHEMERIS_TYPE":0,"CLASSIFICATION_TYPE":"U","NORAD_CAT_ID":67974,"ELEMENT_SET_NO":999,"REV_AT_EPOCH":269,"BSTAR":-0.0033232511,"MEAN_MOTION_DOT":-0.01580975,"MEAN_MOTION_DDOT":0.00075719366},{"OBJECT_NAME":"STARLINK-36883","OBJECT_ID":"2026-038Q","EPOCH":"2026-03-06T14:00:01.000224","MEAN_MOTION":15.9970469,"ECCENTRICITY":0.00012168,"INCLINATION":97.2726,"RA_OF_ASC_NODE":75.643,"ARG_OF_PERICENTER":102.5909,"MEAN_ANOMALY":183.1404,"EPHEMERIS_TYPE":0,"CLASSIFICATION_TYPE":"U","NORAD_CAT_ID":67975,"ELEMENT_SET_NO":999,"REV_AT_EPOCH":269,"BSTAR":-0.0031748119,"MEAN_MOTION_DOT":-0.01570005,"MEAN_MOTION_DDOT":0.00075323694},{"OBJECT_NAME":"STARLINK-36880","OBJECT_ID":"2026-038R","EPOCH":"2026-03-06T14:00:01.000224","MEAN_MOTION":15.99294834,"ECCENTRICITY":0.00012347,"INCLINATION":97.2729,"RA_OF_ASC_NODE":75.6389,"ARG_OF_PERICENTER":102.3076,"MEAN_ANOMALY":174.151,"EPHEMERIS_TYPE":0,"CLASSIFICATION_TYPE":"U","NORAD_CAT_ID":67976,"ELEMENT_SET_NO":999,"REV_AT_EPOCH":269,"BSTAR":-0.0032681377,"MEAN_MOTION_DOT":-0.01579297,"MEAN_MOTION_DDOT":0.00075806139},{"OBJECT_NAME":"STARLINK-36904","OBJECT_ID":"2026-038S","EPOCH":"2026-03-06T14:00:01.000224","MEAN_MOTION":15.99560084,"ECCENTRICITY":0.0001172,"INCLINATION":97.2725,"RA_OF_ASC_NODE":75.6413,"ARG_OF_PERICENTER":98.4645,"MEAN_ANOMALY":184.1644,"EPHEMERIS_TYPE":0,"CLASSIFICATION_TYPE":"U","NORAD_CAT_ID":67977,"ELEMENT_SET_NO":999,"REV_AT_EPOCH":269,"BSTAR":-0.0031863915,"MEAN_MOTION_DOT":-0.01563046,"MEAN_MOTION_DDOT":0.00074582874},{"OBJECT_NAME":"STARLINK-36364","OBJECT_ID":"2026-038T","EPOCH":"2026-03-06T14:00:01.000224","MEAN_MOTION":16.0003383,"ECCENTRICITY":0.00011494,"INCLINATION":97.2719,"RA_OF_ASC_NODE":75.6458,"ARG_OF_PERICENTER":102.7156,"MEAN_ANOMALY":190.2989,"EPHEMERIS_TYPE":0,"CLASSIFICATION_TYPE":"U","NORAD_CAT_ID":67978,"ELEMENT_SET_NO":999,"REV_AT_EPOCH":269,"BSTAR":-0.0031195338,"MEAN_MOTION_DOT":-0.01571534,"MEAN_MOTION_DDOT":0.00075740654},{"OBJECT_NAME":"STARLINK-36359","OBJECT_ID":"2026-038U","EPOCH":"2026-03-06T14:00:01.000224","MEAN_MOTION":15.99407906,"ECCENTRICITY":0.00012173,"INCLINATION":97.2726,"RA_OF_ASC_NODE":75.6395,"ARG_OF_PERICENTER":103.5527,"MEAN_ANOMALY":175.5215,"EPHEMERIS_TYPE":0,"CLASSIFICATION_TYPE":"U","NORAD_CAT_ID":67979,"ELEMENT_SET_NO":999,"REV_AT_EPOCH":269,"BSTAR":-0.0032479199,"MEAN_MOTION_DOT":-0.01579494,"MEAN_MOTION_DDOT":0.00075919647},{"OBJECT_NAME":"STARLINK-36882","OBJECT_ID":"2026-038V","EPOCH":"2026-03-06T14:00:01.000224","MEAN_MOTION":15.9987362,"ECCENTRICITY":0.00011923,"INCLINATION":97.272,"RA_OF_ASC_NODE":75.6442,"ARG_OF_PERICENTER":102.3284,"MEAN_ANOMALY":187.2246,"EPHEMERIS_TYPE":0,"CLASSIFICATION_TYPE":"U","NORAD_CAT_ID":67980,"ELEMENT_SET_NO":999,"REV_AT_EPOCH":269,"BSTAR":-0.0031210738,"MEAN_MOTION_DOT":-0.0155832,"MEAN_MOTION_DDOT":0.00074425635},{"OBJECT_NAME":"STARLINK-36874","OBJECT_ID":"2026-038W","EPOCH":"2026-03-06T14:00:01.000224","MEAN_MOTION":16.00139928,"ECCENTRICITY":0.00012139,"INCLINATION":97.272,"RA_OF_ASC_NODE":75.6469,"ARG_OF_PERICENTER":92.2601,"MEAN_ANOMALY":203.2972,"EPHEMERIS_TYPE":0,"CLASSIFICATION_TYPE":"U","NORAD_CAT_ID":67981,"ELEMENT_SET_NO":999,"REV_AT_EPOCH":269,"BSTAR":-0.0030654008,"MEAN_MOTION_DOT":-0.0155378,"MEAN_MOTION_DDOT":0.0007424581}]
